{
  "type": "FeatureCollection",
  "features": [
    {
      "type": "Feature",
      "properties": {
        "norad_id": 42709,
        "name": "SES-15 (WAAS/PRN 133)",
        "group": "gnss",
        "lat": NaN,
        "lon": NaN,
        "alt_km": NaN,
        "timestamp": "2025-12-01T03:12:44.510198+00:00",
        "meta": {
          "OBJECT_NAME": "SES-15 (WAAS/PRN 133)",
          "OBJECT_ID": "2017-026A",
          "EPOCH": "2025-11-30T16:39:12.908160",
          "MEAN_MOTION": 1.00274329,
          "ECCENTRICITY": 6.92e-05,
          "INCLINATION": 0.0195,
          "RA_OF_ASC_NODE": 336.344,
          "ARG_OF_PERICENTER": 233.5968,
          "MEAN_ANOMALY": 340.5165,
          "EPHEMERIS_TYPE": 0,
          "CLASSIFICATION_TYPE": "U",
          "NORAD_CAT_ID": 42709,
          "ELEMENT_SET_NO": 999,
          "REV_AT_EPOCH": 544,
          "BSTAR": 0,
          "MEAN_MOTION_DOT": 8.1e-07,
          "MEAN_MOTION_DDOT": 0
        }
      },
      "geometry": {
        "type": "Point",
        "coordinates": [
          NaN,
          NaN
        ]
      }
    },
    {
      "type": "Feature",
      "properties": {
        "norad_id": 42738,
        "name": "QZS-2 (QZSS/PRN 194)",
        "group": "gnss",
        "lat": NaN,
        "lon": NaN,
        "alt_km": NaN,
        "timestamp": "2025-12-01T03:12:44.510631+00:00",
        "meta": {
          "OBJECT_NAME": "QZS-2 (QZSS/PRN 194)",
          "OBJECT_ID": "2017-028A",
          "EPOCH": "2025-11-29T15:03:38.649888",
          "MEAN_MOTION": 1.0028652,
          "ECCENTRICITY": 0.07597264,
          "INCLINATION": 39.7358,
          "RA_OF_ASC_NODE": 246.0747,
          "ARG_OF_PERICENTER": 269.3342,
          "MEAN_ANOMALY": 280.5316,
          "EPHEMERIS_TYPE": 0,
          "CLASSIFICATION_TYPE": "U",
          "NORAD_CAT_ID": 42738,
          "ELEMENT_SET_NO": 999,
          "REV_AT_EPOCH": 562,
          "BSTAR": 0,
          "MEAN_MOTION_DOT": -1.6e-06,
          "MEAN_MOTION_DDOT": 0
        }
      },
      "geometry": {
        "type": "Point",
        "coordinates": [
          NaN,
          NaN
        ]
      }
    },
    {
      "type": "Feature",
      "properties": {
        "norad_id": 42917,
        "name": "QZS-3 (QZSS/PRN 199)",
        "group": "gnss",
        "lat": NaN,
        "lon": NaN,
        "alt_km": NaN,
        "timestamp": "2025-12-01T03:12:44.511039+00:00",
        "meta": {
          "OBJECT_NAME": "QZS-3 (QZSS/PRN 199)",
          "OBJECT_ID": "2017-048A",
          "EPOCH": "2025-11-30T20:20:38.732928",
          "MEAN_MOTION": 1.00273029,
          "ECCENTRICITY": 0.0001175,
          "INCLINATION": 0.0776,
          "RA_OF_ASC_NODE": 226.957,
          "ARG_OF_PERICENTER": 48.6113,
          "MEAN_ANOMALY": 226.5215,
          "EPHEMERIS_TYPE": 0,
          "CLASSIFICATION_TYPE": "U",
          "NORAD_CAT_ID": 42917,
          "ELEMENT_SET_NO": 999,
          "REV_AT_EPOCH": 3027,
          "BSTAR": 0,
          "MEAN_MOTION_DOT": -3.26e-06,
          "MEAN_MOTION_DDOT": 0
        }
      },
      "geometry": {
        "type": "Point",
        "coordinates": [
          NaN,
          NaN
        ]
      }
    },
    {
      "type": "Feature",
      "properties": {
        "norad_id": 42965,
        "name": "QZS-4 (QZSS/PRN 195)",
        "group": "gnss",
        "lat": NaN,
        "lon": NaN,
        "alt_km": NaN,
        "timestamp": "2025-12-01T03:12:44.511464+00:00",
        "meta": {
          "OBJECT_NAME": "QZS-4 (QZSS/PRN 195)",
          "OBJECT_ID": "2017-062A",
          "EPOCH": "2025-11-30T08:44:38.860224",
          "MEAN_MOTION": 1.00255929,
          "ECCENTRICITY": 0.07523208,
          "INCLINATION": 40.233,
          "RA_OF_ASC_NODE": 346.0314,
          "ARG_OF_PERICENTER": 271.1913,
          "MEAN_ANOMALY": 80.7722,
          "EPHEMERIS_TYPE": 0,
          "CLASSIFICATION_TYPE": "U",
          "NORAD_CAT_ID": 42965,
          "ELEMENT_SET_NO": 999,
          "REV_AT_EPOCH": 2981,
          "BSTAR": 0,
          "MEAN_MOTION_DOT": -3.04e-06,
          "MEAN_MOTION_DDOT": 0
        }
      },
      "geometry": {
        "type": "Point",
        "coordinates": [
          NaN,
          NaN
        ]
      }
    },
    {
      "type": "Feature",
      "properties": {
        "norad_id": 43286,
        "name": "IRNSS-1I",
        "group": "gnss",
        "lat": NaN,
        "lon": NaN,
        "alt_km": NaN,
        "timestamp": "2025-12-01T03:12:44.511884+00:00",
        "meta": {
          "OBJECT_NAME": "IRNSS-1I",
          "OBJECT_ID": "2018-035A",
          "EPOCH": "2025-11-29T20:58:58.632672",
          "MEAN_MOTION": 1.00276938,
          "ECCENTRICITY": 0.00215186,
          "INCLINATION": 29.1184,
          "RA_OF_ASC_NODE": 77.3003,
          "ARG_OF_PERICENTER": 181.394,
          "MEAN_ANOMALY": 180.1762,
          "EPHEMERIS_TYPE": 0,
          "CLASSIFICATION_TYPE": "U",
          "NORAD_CAT_ID": 43286,
          "ELEMENT_SET_NO": 999,
          "REV_AT_EPOCH": 2808,
          "BSTAR": 0,
          "MEAN_MOTION_DOT": 1.02e-06,
          "MEAN_MOTION_DDOT": 0
        }
      },
      "geometry": {
        "type": "Point",
        "coordinates": [
          NaN,
          NaN
        ]
      }
    },
    {
      "type": "Feature",
      "properties": {
        "norad_id": 44624,
        "name": "EUTELSAT 5 WEST B (EGNOS/PRN 121)",
        "group": "gnss",
        "lat": NaN,
        "lon": NaN,
        "alt_km": NaN,
        "timestamp": "2025-12-01T03:12:44.512317+00:00",
        "meta": {
          "OBJECT_NAME": "EUTELSAT 5 WEST B (EGNOS/PRN 121)",
          "OBJECT_ID": "2019-067A",
          "EPOCH": "2025-11-30T18:57:11.146176",
          "MEAN_MOTION": 1.00271198,
          "ECCENTRICITY": 0.0003442,
          "INCLINATION": 0.0671,
          "RA_OF_ASC_NODE": 334.769,
          "ARG_OF_PERICENTER": 274.6765,
          "MEAN_ANOMALY": 99.7753,
          "EPHEMERIS_TYPE": 0,
          "CLASSIFICATION_TYPE": "U",
          "NORAD_CAT_ID": 44624,
          "ELEMENT_SET_NO": 999,
          "REV_AT_EPOCH": 2244,
          "BSTAR": 0,
          "MEAN_MOTION_DOT": -2e-07,
          "MEAN_MOTION_DDOT": 0
        }
      },
      "geometry": {
        "type": "Point",
        "coordinates": [
          NaN,
          NaN
        ]
      }
    },
    {
      "type": "Feature",
      "properties": {
        "norad_id": 46114,
        "name": "GALAXY 30 (WAAS/PRN 135)",
        "group": "gnss",
        "lat": NaN,
        "lon": NaN,
        "alt_km": NaN,
        "timestamp": "2025-12-01T03:12:44.512792+00:00",
        "meta": {
          "OBJECT_NAME": "GALAXY 30 (WAAS/PRN 135)",
          "OBJECT_ID": "2020-056C",
          "EPOCH": "2025-11-30T14:57:38.108736",
          "MEAN_MOTION": 1.00272306,
          "ECCENTRICITY": 0.0002286,
          "INCLINATION": 0.0185,
          "RA_OF_ASC_NODE": 288.0747,
          "ARG_OF_PERICENTER": 319.4263,
          "MEAN_ANOMALY": 281.6619,
          "EPHEMERIS_TYPE": 0,
          "CLASSIFICATION_TYPE": "U",
          "NORAD_CAT_ID": 46114,
          "ELEMENT_SET_NO": 999,
          "REV_AT_EPOCH": 1930,
          "BSTAR": 0,
          "MEAN_MOTION_DOT": 5.8e-07,
          "MEAN_MOTION_DDOT": 0
        }
      },
      "geometry": {
        "type": "Point",
        "coordinates": [
          NaN,
          NaN
        ]
      }
    },
    {
      "type": "Feature",
      "properties": {
        "norad_id": 49336,
        "name": "QZS-1R (QZSS/PRN 196)",
        "group": "gnss",
        "lat": NaN,
        "lon": NaN,
        "alt_km": NaN,
        "timestamp": "2025-12-01T03:12:44.513347+00:00",
        "meta": {
          "OBJECT_NAME": "QZS-1R (QZSS/PRN 196)",
          "OBJECT_ID": "2021-096A",
          "EPOCH": "2025-11-30T15:23:38.784768",
          "MEAN_MOTION": 1.00261115,
          "ECCENTRICITY": 0.0753238,
          "INCLINATION": 37.0511,
          "RA_OF_ASC_NODE": 82.5412,
          "ARG_OF_PERICENTER": 271.0606,
          "MEAN_ANOMALY": 82.4765,
          "EPHEMERIS_TYPE": 0,
          "CLASSIFICATION_TYPE": "U",
          "NORAD_CAT_ID": 49336,
          "ELEMENT_SET_NO": 999,
          "REV_AT_EPOCH": 1502,
          "BSTAR": 0,
          "MEAN_MOTION_DOT": -2.12e-06,
          "MEAN_MOTION_DDOT": 0
        }
      },
      "geometry": {
        "type": "Point",
        "coordinates": [
          NaN,
          NaN
        ]
      }
    }
  ]
}