SES-15                  
1 42709U 17026A   25334.69389940  .00000081  00000+0  00000+0 0  9990
2 42709   0.0195 336.3440 0000692 233.5968 340.5165  1.00274329  5440
QZS-2 (MICHIBIKI-2)     
1 42738U 17028A   25333.62753067 -.00000160  00000+0  00000+0 0  9990
2 42738  39.7358 246.0747 0759726 269.3342 280.5316  1.00286520  5628
QZS-3 (MICHIBIKI-3)     
1 42917U 17048A   25334.84767052 -.00000326  00000+0  00000+0 0  9999
2 42917   0.0776 226.9570 0001175  48.6113 226.5215  1.00273029 30272
QZS-4 (MICHIBIKI-4)     
1 42965U 17062A   25334.36433866 -.00000304  00000+0  00000+0 0  9994
2 42965  40.2330 346.0314 0752320 271.1913  80.7722  1.00255929 29813
IRNSS-1I                
1 43286U 18035A   25333.87428973  .00000102  00000+0  00000+0 0  9995
2 43286  29.1184  77.3003 0021518 181.3940 180.1762  1.00276938 28082
EUTELSAT 5 WEST B       
1 44624U 19067A   25334.78971234 -.00000020  00000+0  00000+0 0  9992
2 44624   0.0671 334.7690 0003442 274.6765  99.7753  1.00271198 22449
GALAXY 30 (G-30)        
1 46114U 20056C   25334.62335774  .00000058  00000+0  00000+0 0  9994
2 46114   0.0185 288.0747 0002286 319.4263 281.6619  1.00272306 19301
QZS-1R (MICHIBIKI-1R)   
1 49336U 21096A   25334.64142112 -.00000212  00000+0  00000+0 0  9995
2 49336  37.0511  82.5412 0753238 271.0606  82.4765  1.00261115 15023
